55177,ONEWEB-0716,2023,109.29,-1.0,+,87.92,Active,0,LEO,USA,UK,Unknown,Unknown,Unknown,1 55177U 23004AP  24207.26740276  .00000065  00000+0  13389-3 0  9990,2 55177  87.9189 143.6615 0002163  75.3553 284.7818 13.17648961 76462,13.17648961,0.0002163,LEO
55178,ONEWEB-0717,2023,109.29,-1.0,+,87.92,Active,0,LEO,USA,UK,Unknown,Unknown,Unknown,1 55178U 23004AQ  24207.24962933  .00000052  00000+0  10165-3 0  9990,2 55178  87.9188 143.6286 0002463 101.6263 258.5145 13.17648387 76510,13.17648387,0.0002463,LEO
55179,ONEWEB-0719,2023,109.29,-1.0,+,87.92,Active,0,LEO,USA,UK,Unknown,Unknown,Unknown,1 55179U 23004AR  24207.33688474  .00000160  00000+0  37875-3 0  9993,2 55179  87.9188 143.5975 0002352  77.4427 282.6968 13.17650304 76472,13.17650304,0.0002352,LEO
55796,ONEWEB-0530,2023,109.03,-1.0,+,87.92,Active,0,LEO,USA,UK,Unknown,Unknown,Unknown,1 55796U 23029A   24207.12793449  .00000102  00000+0  21975-3 0  9991,2 55796  87.9185  52.1554 0002233  96.1402 263.9986 13.20772684 69790,13.20772684,0.0002233,LEO
55797,ONEWEB-0534,2023,109.03,-1.0,+,87.92,Active,0,LEO,USA,UK,Unknown,Unknown,Unknown,1 55797U 23029B   24207.11529498  .00000058  00000+0  10949-3 0  9991,2 55797  87.9186  52.1647 0001933  80.4696 279.6656 13.20773334 69793,13.20773334,0.0001933,LEO
55798,ONEWEB-0556,2023,109.03,-1.0,+,87.92,Active,0,LEO,USA,UK,Unknown,Unknown,Unknown,1 55798U 23029C   24207.12162197  .00000059  00000+0  11337-3 0  9995,2 55798  87.9184  52.1570 0002609  79.3161 280.8266 13.20771466 69797,13.20771466,0.0002609,LEO
55799,ONEWEB-0562,2023,109.03,-1.0,+,87.92,Active,0,LEO,USA,UK,Unknown,Unknown,Unknown,1 55799U 23029D   24207.56353339  .00000029  00000+0  40349-4 0  9997,2 55799  87.9189  52.0588 0002925  89.9622 270.1847 13.20772136 70537,13.20772136,0.0002925,LEO
55800,ONEWEB-0563,2023,109.03,-1.0,+,87.92,Active,0,LEO,USA,UK,Unknown,Unknown,Unknown,1 55800U 23029E   24207.10266314 -.00000012  00000+0 -62418-4 0  9991,2 55800  87.9184  52.1668 0001859  77.8009 282.3333 13.20772944 69782,13.20772944,0.0001859,LEO
